<?xml version="1.0" encoding="UTF-8"?>
<ndm xmlns:xsi="http://www.w3.org/2001/XMLSchema-instance" xsi:noNamespaceSchemaLocation="https://sanaregistry.org/r/ndmxml_unqualified/ndmxml-2.0.0-master-2.0.xsd">
<omm id="CCSDS_OMM_VERS" version="2.0">
<header><CREATION_DATE/><ORIGINATOR/></header><body><segment><metadata><OBJECT_NAME>IRIDIUM 57 [-]</OBJECT_NAME><OBJECT_ID>1998-019B</OBJECT_ID><CENTER_NAME>EARTH</CENTER_NAME><REF_FRAME>TEME</REF_FRAME><TIME_SYSTEM>UTC</TIME_SYSTEM><MEAN_ELEMENT_THEORY>SGP4</MEAN_ELEMENT_THEORY></metadata><data><meanElements><EPOCH>2024-04-10T04:02:38.739552</EPOCH><MEAN_MOTION>14.35143886</MEAN_MOTION><ECCENTRICITY>.0002173</ECCENTRICITY><INCLINATION>86.3960</INCLINATION><RA_OF_ASC_NODE>326.6305</RA_OF_ASC_NODE><ARG_OF_PERICENTER>88.1333</ARG_OF_PERICENTER><MEAN_ANOMALY>272.0112</MEAN_ANOMALY></meanElements><tleParameters><EPHEMERIS_TYPE>0</EPHEMERIS_TYPE><CLASSIFICATION_TYPE>U</CLASSIFICATION_TYPE><NORAD_CAT_ID>25273</NORAD_CAT_ID><ELEMENT_SET_NO>999</ELEMENT_SET_NO><REV_AT_EPOCH>36287</REV_AT_EPOCH><BSTAR>.12356E-3</BSTAR><MEAN_MOTION_DOT>.372E-5</MEAN_MOTION_DOT><MEAN_MOTION_DDOT>0</MEAN_MOTION_DDOT></tleParameters></data></segment></body></omm>
<omm id="CCSDS_OMM_VERS" version="2.0">
<header><CREATION_DATE/><ORIGINATOR/></header><body><segment><metadata><OBJECT_NAME>IRIDIUM 63 [-]</OBJECT_NAME><OBJECT_ID>1998-021B</OBJECT_ID><CENTER_NAME>EARTH</CENTER_NAME><REF_FRAME>TEME</REF_FRAME><TIME_SYSTEM>UTC</TIME_SYSTEM><MEAN_ELEMENT_THEORY>SGP4</MEAN_ELEMENT_THEORY></metadata><data><meanElements><EPOCH>2024-04-09T22:32:26.063520</EPOCH><MEAN_MOTION>14.35670215</MEAN_MOTION><ECCENTRICITY>.0001922</ECCENTRICITY><INCLINATION>86.3938</INCLINATION><RA_OF_ASC_NODE>263.5989</RA_OF_ASC_NODE><ARG_OF_PERICENTER>95.7862</ARG_OF_PERICENTER><MEAN_ANOMALY>264.3554</MEAN_ANOMALY></meanElements><tleParameters><EPHEMERIS_TYPE>0</EPHEMERIS_TYPE><CLASSIFICATION_TYPE>U</CLASSIFICATION_TYPE><NORAD_CAT_ID>25286</NORAD_CAT_ID><ELEMENT_SET_NO>999</ELEMENT_SET_NO><REV_AT_EPOCH>36166</REV_AT_EPOCH><BSTAR>.16697E-3</BSTAR><MEAN_MOTION_DOT>.501E-5</MEAN_MOTION_DOT><MEAN_MOTION_DDOT>0</MEAN_MOTION_DDOT></tleParameters></data></segment></body></omm>
<omm id="CCSDS_OMM_VERS" version="2.0">
<header><CREATION_DATE/><ORIGINATOR/></header><body><segment><metadata><OBJECT_NAME>IRIDIUM 71 [-]</OBJECT_NAME><OBJECT_ID>1998-026B</OBJECT_ID><CENTER_NAME>EARTH</CENTER_NAME><REF_FRAME>TEME</REF_FRAME><TIME_SYSTEM>UTC</TIME_SYSTEM><MEAN_ELEMENT_THEORY>SGP4</MEAN_ELEMENT_THEORY></metadata><data><meanElements><EPOCH>2024-04-09T22:40:27.717600</EPOCH><MEAN_MOTION>14.40198100</MEAN_MOTION><ECCENTRICITY>.0004195</ECCENTRICITY><INCLINATION>86.3922</INCLINATION><RA_OF_ASC_NODE>272.9724</RA_OF_ASC_NODE><ARG_OF_PERICENTER>83.8286</ARG_OF_PERICENTER><MEAN_ANOMALY>276.3391</MEAN_ANOMALY></meanElements><tleParameters><EPHEMERIS_TYPE>0</EPHEMERIS_TYPE><CLASSIFICATION_TYPE>U</CLASSIFICATION_TYPE><NORAD_CAT_ID>25320</NORAD_CAT_ID><ELEMENT_SET_NO>999</ELEMENT_SET_NO><REV_AT_EPOCH>36121</REV_AT_EPOCH><BSTAR>.17533E-3</BSTAR><MEAN_MOTION_DOT>.574E-5</MEAN_MOTION_DOT><MEAN_MOTION_DDOT>0</MEAN_MOTION_DDOT></tleParameters></data></segment></body></omm>
<omm id="CCSDS_OMM_VERS" version="2.0">
<header><CREATION_DATE/><ORIGINATOR/></header><body><segment><metadata><OBJECT_NAME>IRIDIUM 82 [-]</OBJECT_NAME><OBJECT_ID>1998-051A</OBJECT_ID><CENTER_NAME>EARTH</CENTER_NAME><REF_FRAME>TEME</REF_FRAME><TIME_SYSTEM>UTC</TIME_SYSTEM><MEAN_ELEMENT_THEORY>SGP4</MEAN_ELEMENT_THEORY></metadata><data><meanElements><EPOCH>2024-04-09T20:22:11.078112</EPOCH><MEAN_MOTION>15.08024909</MEAN_MOTION><ECCENTRICITY>.0134668</ECCENTRICITY><INCLINATION>86.3775</INCLINATION><RA_OF_ASC_NODE>318.1617</RA_OF_ASC_NODE><ARG_OF_PERICENTER>111.2091</ARG_OF_PERICENTER><MEAN_ANOMALY>250.3594</MEAN_ANOMALY></meanElements><tleParameters><EPHEMERIS_TYPE>0</EPHEMERIS_TYPE><CLASSIFICATION_TYPE>U</CLASSIFICATION_TYPE><NORAD_CAT_ID>25467</NORAD_CAT_ID><ELEMENT_SET_NO>999</ELEMENT_SET_NO><REV_AT_EPOCH>35818</REV_AT_EPOCH><BSTAR>.62852E-3</BSTAR><MEAN_MOTION_DOT>.11996E-3</MEAN_MOTION_DOT><MEAN_MOTION_DDOT>0</MEAN_MOTION_DDOT></tleParameters></data></segment></body></omm>
<omm id="CCSDS_OMM_VERS" version="2.0">
<header><CREATION_DATE/><ORIGINATOR/></header><body><segment><metadata><OBJECT_NAME>IRIDIUM 2 [-]</OBJECT_NAME><OBJECT_ID>1998-066A</OBJECT_ID><CENTER_NAME>EARTH</CENTER_NAME><REF_FRAME>TEME</REF_FRAME><TIME_SYSTEM>UTC</TIME_SYSTEM><MEAN_ELEMENT_THEORY>SGP4</MEAN_ELEMENT_THEORY></metadata><data><meanElements><EPOCH>2024-04-10T04:37:18.954336</EPOCH><MEAN_MOTION>15.65082046</MEAN_MOTION><ECCENTRICITY>.0003329</ECCENTRICITY><INCLINATION>85.5105</INCLINATION><RA_OF_ASC_NODE>347.2612</RA_OF_ASC_NODE><ARG_OF_PERICENTER>131.8015</ARG_OF_PERICENTER><MEAN_ANOMALY>228.3536</MEAN_ANOMALY></meanElements><tleParameters><EPHEMERIS_TYPE>0</EPHEMERIS_TYPE><CLASSIFICATION_TYPE>U</CLASSIFICATION_TYPE><NORAD_CAT_ID>25527</NORAD_CAT_ID><ELEMENT_SET_NO>999</ELEMENT_SET_NO><REV_AT_EPOCH>39672</REV_AT_EPOCH><BSTAR>.10076E-2</BSTAR><MEAN_MOTION_DOT>.100074E-2</MEAN_MOTION_DOT><MEAN_MOTION_DDOT>0</MEAN_MOTION_DDOT></tleParameters></data></segment></body></omm>
</ndm>
