IRIDIUM 57 [-]          
1 25273U 98019B   24101.16850393  .00000372  00000+0  12356-3 0  9990
2 25273  86.3960 326.6305 0002173  88.1333 272.0112 14.35143886362871
IRIDIUM 63 [-]          
1 25286U 98021B   24100.93919055  .00000501  00000+0  16697-3 0  9998
2 25286  86.3938 263.5989 0001922  95.7862 264.3554 14.35670215361660
IRIDIUM 71 [-]          
1 25320U 98026B   24100.94476525  .00000574  00000+0  17533-3 0  9993
2 25320  86.3922 272.9724 0004195  83.8286 276.3391 14.40198100361213
IRIDIUM 82 [-]          
1 25467U 98051A   24100.84873933  .00011996  00000+0  62852-3 0  9990
2 25467  86.3775 318.1617 0134668 111.2091 250.3594 15.08024909358183
IRIDIUM 2 [-]           
1 25527U 98066A   24101.19258049  .00100074  00000+0  10076-2 0  9993
2 25527  85.5105 347.2612 0003329 131.8015 228.3536 15.65082046396721
